STARLINK-36092          
1 66869U 25281X   26001.02514912  .00107346  00000+0  18044-2 0  9995
2 66869  42.9972   6.7780 0000183 224.4079 135.6767 15.50674992  5815
STARLINK-36114          
1 66870U 25281Y   25365.44507159  .00112246  00000+0  18826-2 0  9993
2 66870  43.0003  10.1674 0004382 273.8124  86.2235 15.50709710  5727
STARLINK-36095          
1 66871U 25281Z   25365.05825064  .00124948  00000+0  20954-2 0  9996
2 66871  42.9992  12.4229 0001866 292.0670  67.9992 15.50664388  5667
STARLINK-36082          
1 66872U 25281AA  26001.02379197  .00206247  00000+0  33087-2 0  9997
2 66872  43.0005   6.7672 0008411 270.6043  89.3854 15.51556281  5817
STARLINK-36128          
1 66873U 25281AB  26001.02312140  .00098747  00000+0  16640-2 0  9993
2 66873  43.0002   6.7608 0000559 139.1719 220.9183 15.50644947  5766
STARLINK-36129          
1 66874U 25281AC  26001.02378980  .00099933  00000+0  16838-2 0  9995
2 66874  42.9999   6.7664 0003583 285.5521  74.4943 15.50637151  5810
STARLINK-36053          
1 66875U 25281AD  26001.02275935  .00180125  00000+0  29952-2 0  9997
2 66875  42.9989   6.7563 0000989 169.8054 190.2826 15.50680308  5763
STARLINK-35702          
1 66876U 25281AE  26001.02344573  .00102615  00000+0  17282-2 0  9994
2 66876  43.0008   6.7636 0003041 284.5135  75.5388 15.50639981  5811
ZQ-3 R/B                
1 66877U 25282A   26001.14060213  .01057287  82193-5  15466-3 0  9992
2 66877  56.9472 341.1685 0614300 254.6018  98.6381 14.99625057  4262
STARLINK-35866          
1 66878U 25283A   26001.12813162  .00134255  00000+0  23778-2 0  9996
2 66878  53.1609 338.4508 0001778  71.1630 288.9572 15.49343538  5497
STARLINK-35749          
1 66879U 25283B   26001.16668980 -.00071296  00000+0 -12851-2 0  9994
2 66879  53.1594 338.2558 0001206  73.5600 145.6066 15.49319344  5555
STARLINK-35844          
1 66880U 25283C   26001.19230354  .00093325  00000+0  16654-2 0  9999
2 66880  53.1602 338.1390 0001795  54.9931 305.1246 15.49319085  5503
