CCSDS_OMM_VERS = 2.0
CREATION_DATE  = 
ORIGINATOR     = 

OBJECT_NAME    = STARLINK-36092
OBJECT_ID      = 2025-281X
CENTER_NAME    = EARTH
REF_FRAME      = TEME
TIME_SYSTEM    = UTC
MEAN_ELEMENT_THEORY = SGP/SGP4

EPOCH          = 2026-01-01T00:36:12.883968
MEAN_MOTION    = 15.50674992
ECCENTRICITY   = .0000183
INCLINATION    = 42.9972
RA_OF_ASC_NODE = 6.7780
ARG_OF_PERICENTER = 224.4079
MEAN_ANOMALY   = 135.6767

EPHEMERIS_TYPE = 0
CLASSIFICATION_TYPE = U
NORAD_CAT_ID   = 66869
ELEMENT_SET_NO = 999
REV_AT_EPOCH   = 581
BSTAR          = .18044E-2
MEAN_MOTION_DOT = .107346E-2
MEAN_MOTION_DDOT = 0

CCSDS_OMM_VERS = 2.0
CREATION_DATE  = 
ORIGINATOR     = 

OBJECT_NAME    = STARLINK-36114
OBJECT_ID      = 2025-281Y
CENTER_NAME    = EARTH
REF_FRAME      = TEME
TIME_SYSTEM    = UTC
MEAN_ELEMENT_THEORY = SGP/SGP4

EPOCH          = 2025-12-31T10:40:54.185376
MEAN_MOTION    = 15.50709710
ECCENTRICITY   = .00043829
INCLINATION    = 43.0003
RA_OF_ASC_NODE = 10.1674
ARG_OF_PERICENTER = 273.8124
MEAN_ANOMALY   = 86.2235

EPHEMERIS_TYPE = 0
CLASSIFICATION_TYPE = U
NORAD_CAT_ID   = 66870
ELEMENT_SET_NO = 999
REV_AT_EPOCH   = 572
BSTAR          = .18825644E-2
MEAN_MOTION_DOT = .112246E-2
MEAN_MOTION_DDOT = 0

CCSDS_OMM_VERS = 2.0
CREATION_DATE  = 
ORIGINATOR     = 

OBJECT_NAME    = STARLINK-36095
OBJECT_ID      = 2025-281Z
CENTER_NAME    = EARTH
REF_FRAME      = TEME
TIME_SYSTEM    = UTC
MEAN_ELEMENT_THEORY = SGP/SGP4

EPOCH          = 2025-12-31T01:23:52.855296
MEAN_MOTION    = 15.50664388
ECCENTRICITY   = .00018669
INCLINATION    = 42.9992
RA_OF_ASC_NODE = 12.4229
ARG_OF_PERICENTER = 292.0670
MEAN_ANOMALY   = 67.9992

EPHEMERIS_TYPE = 0
CLASSIFICATION_TYPE = U
NORAD_CAT_ID   = 66871
ELEMENT_SET_NO = 999
REV_AT_EPOCH   = 566
BSTAR          = .20954038E-2
MEAN_MOTION_DOT = .124948E-2
MEAN_MOTION_DDOT = 0

CCSDS_OMM_VERS = 2.0
CREATION_DATE  = 
ORIGINATOR     = 

OBJECT_NAME    = STARLINK-36082
OBJECT_ID      = 2025-281AA
CENTER_NAME    = EARTH
REF_FRAME      = TEME
TIME_SYSTEM    = UTC
MEAN_ELEMENT_THEORY = SGP/SGP4

EPOCH          = 2026-01-01T00:34:15.626208
MEAN_MOTION    = 15.51556281
ECCENTRICITY   = .0008411
INCLINATION    = 43.0005
RA_OF_ASC_NODE = 6.7672
ARG_OF_PERICENTER = 270.6043
MEAN_ANOMALY   = 89.3854

EPHEMERIS_TYPE = 0
CLASSIFICATION_TYPE = U
NORAD_CAT_ID   = 66872
ELEMENT_SET_NO = 999
REV_AT_EPOCH   = 581
BSTAR          = .33087E-2
MEAN_MOTION_DOT = .206247E-2
MEAN_MOTION_DDOT = 0

CCSDS_OMM_VERS = 2.0
CREATION_DATE  = 
ORIGINATOR     = 

OBJECT_NAME    = STARLINK-36128
OBJECT_ID      = 2025-281AB
CENTER_NAME    = EARTH
REF_FRAME      = TEME
TIME_SYSTEM    = UTC
MEAN_ELEMENT_THEORY = SGP/SGP4

EPOCH          = 2026-01-01T00:33:17.688960
MEAN_MOTION    = 15.50644947
ECCENTRICITY   = .0000559
INCLINATION    = 43.0002
RA_OF_ASC_NODE = 6.7608
ARG_OF_PERICENTER = 139.1719
MEAN_ANOMALY   = 220.9183

EPHEMERIS_TYPE = 0
CLASSIFICATION_TYPE = U
NORAD_CAT_ID   = 66873
ELEMENT_SET_NO = 999
REV_AT_EPOCH   = 576
BSTAR          = .1664E-2
MEAN_MOTION_DOT = .98747E-3
MEAN_MOTION_DDOT = 0

CCSDS_OMM_VERS = 2.0
CREATION_DATE  = 
ORIGINATOR     = 

OBJECT_NAME    = STARLINK-36129
OBJECT_ID      = 2025-281AC
CENTER_NAME    = EARTH
REF_FRAME      = TEME
TIME_SYSTEM    = UTC
MEAN_ELEMENT_THEORY = SGP/SGP4

EPOCH          = 2026-01-01T00:34:15.438720
MEAN_MOTION    = 15.50637151
ECCENTRICITY   = .0003583
INCLINATION    = 42.9999
RA_OF_ASC_NODE = 6.7664
ARG_OF_PERICENTER = 285.5521
MEAN_ANOMALY   = 74.4943

EPHEMERIS_TYPE = 0
CLASSIFICATION_TYPE = U
NORAD_CAT_ID   = 66874
ELEMENT_SET_NO = 999
REV_AT_EPOCH   = 581
BSTAR          = .16838E-2
MEAN_MOTION_DOT = .99933E-3
MEAN_MOTION_DDOT = 0

CCSDS_OMM_VERS = 2.0
CREATION_DATE  = 
ORIGINATOR     = 

OBJECT_NAME    = STARLINK-36053
OBJECT_ID      = 2025-281AD
CENTER_NAME    = EARTH
REF_FRAME      = TEME
TIME_SYSTEM    = UTC
MEAN_ELEMENT_THEORY = SGP/SGP4

EPOCH          = 2026-01-01T00:32:46.407840
MEAN_MOTION    = 15.50680308
ECCENTRICITY   = .0000989
INCLINATION    = 42.9989
RA_OF_ASC_NODE = 6.7563
ARG_OF_PERICENTER = 169.8054
MEAN_ANOMALY   = 190.2826

EPHEMERIS_TYPE = 0
CLASSIFICATION_TYPE = U
NORAD_CAT_ID   = 66875
ELEMENT_SET_NO = 999
REV_AT_EPOCH   = 576
BSTAR          = .29952E-2
MEAN_MOTION_DOT = .180125E-2
MEAN_MOTION_DDOT = 0

CCSDS_OMM_VERS = 2.0
CREATION_DATE  = 
ORIGINATOR     = 

OBJECT_NAME    = STARLINK-35702
OBJECT_ID      = 2025-281AE
CENTER_NAME    = EARTH
REF_FRAME      = TEME
TIME_SYSTEM    = UTC
MEAN_ELEMENT_THEORY = SGP/SGP4

EPOCH          = 2026-01-01T00:33:45.711072
MEAN_MOTION    = 15.50639981
ECCENTRICITY   = .0003041
INCLINATION    = 43.0008
RA_OF_ASC_NODE = 6.7636
ARG_OF_PERICENTER = 284.5135
MEAN_ANOMALY   = 75.5388

EPHEMERIS_TYPE = 0
CLASSIFICATION_TYPE = U
NORAD_CAT_ID   = 66876
ELEMENT_SET_NO = 999
REV_AT_EPOCH   = 581
BSTAR          = .17282E-2
MEAN_MOTION_DOT = .102615E-2
MEAN_MOTION_DDOT = 0

CCSDS_OMM_VERS = 2.0
CREATION_DATE  = 
ORIGINATOR     = 

OBJECT_NAME    = ZQ-3 R/B
OBJECT_ID      = 2025-282A
CENTER_NAME    = EARTH
REF_FRAME      = TEME
TIME_SYSTEM    = UTC
MEAN_ELEMENT_THEORY = SGP/SGP4

EPOCH          = 2026-01-01T03:22:28.024032
MEAN_MOTION    = 14.99625057
ECCENTRICITY   = .06143
INCLINATION    = 56.9472
RA_OF_ASC_NODE = 341.1685
ARG_OF_PERICENTER = 254.6018
MEAN_ANOMALY   = 98.6381

EPHEMERIS_TYPE = 0
CLASSIFICATION_TYPE = U
NORAD_CAT_ID   = 66877
ELEMENT_SET_NO = 999
REV_AT_EPOCH   = 426
BSTAR          = .15466E-3
MEAN_MOTION_DOT = .1057287E-1
MEAN_MOTION_DDOT = .82193E-5

CCSDS_OMM_VERS = 2.0
CREATION_DATE  = 
ORIGINATOR     = 

OBJECT_NAME    = STARLINK-35866
OBJECT_ID      = 2025-283A
CENTER_NAME    = EARTH
REF_FRAME      = TEME
TIME_SYSTEM    = UTC
MEAN_ELEMENT_THEORY = SGP/SGP4

EPOCH          = 2026-01-01T03:04:30.571968
MEAN_MOTION    = 15.49343538
ECCENTRICITY   = .0001778
INCLINATION    = 53.1609
RA_OF_ASC_NODE = 338.4508
ARG_OF_PERICENTER = 71.1630
MEAN_ANOMALY   = 288.9572

EPHEMERIS_TYPE = 0
CLASSIFICATION_TYPE = U
NORAD_CAT_ID   = 66878
ELEMENT_SET_NO = 999
REV_AT_EPOCH   = 549
BSTAR          = .23778E-2
MEAN_MOTION_DOT = .134255E-2
MEAN_MOTION_DDOT = 0

CCSDS_OMM_VERS = 2.0
CREATION_DATE  = 
ORIGINATOR     = 

OBJECT_NAME    = STARLINK-35749
OBJECT_ID      = 2025-283B
CENTER_NAME    = EARTH
REF_FRAME      = TEME
TIME_SYSTEM    = UTC
MEAN_ELEMENT_THEORY = SGP/SGP4

EPOCH          = 2026-01-01T04:00:01.998720
MEAN_MOTION    = 15.49319344
ECCENTRICITY   = .0001206
INCLINATION    = 53.1594
RA_OF_ASC_NODE = 338.2558
ARG_OF_PERICENTER = 73.5600
MEAN_ANOMALY   = 145.6066

EPHEMERIS_TYPE = 0
CLASSIFICATION_TYPE = U
NORAD_CAT_ID   = 66879
ELEMENT_SET_NO = 999
REV_AT_EPOCH   = 555
BSTAR          = -.12851E-2
MEAN_MOTION_DOT = -.71296E-3
MEAN_MOTION_DDOT = 0

CCSDS_OMM_VERS = 2.0
CREATION_DATE  = 
ORIGINATOR     = 

OBJECT_NAME    = STARLINK-35844
OBJECT_ID      = 2025-283C
CENTER_NAME    = EARTH
REF_FRAME      = TEME
TIME_SYSTEM    = UTC
MEAN_ELEMENT_THEORY = SGP/SGP4

EPOCH          = 2026-01-01T04:36:55.025856
MEAN_MOTION    = 15.49319085
ECCENTRICITY   = .0001795
INCLINATION    = 53.1602
RA_OF_ASC_NODE = 338.1390
ARG_OF_PERICENTER = 54.9931
MEAN_ANOMALY   = 305.1246

EPHEMERIS_TYPE = 0
CLASSIFICATION_TYPE = U
NORAD_CAT_ID   = 66880
ELEMENT_SET_NO = 999
REV_AT_EPOCH   = 550
BSTAR          = .16654E-2
MEAN_MOTION_DOT = .93325E-3
MEAN_MOTION_DDOT = 0

